NORAD_CAT_ID,OBJECT_NAME,OBJECT_TYPE,EPOCH,MEAN_MOTION,ECCENTRICITY,INCLINATION,RA_OF_ASC_NODE,ARG_OF_PERICENTER,MEAN_ANOMALY,BSTAR,MEAN_MOTION_DOT,MEAN_MOTION_DDOT,TLE_LINE0,TLE_LINE1,TLE_LINE2,SEMIMAJOR_AXIS,PERIOD,APOGEE,PERIGEE,DECAYED
55778.0,STARLINK-5816,PAYLOAD,2023-12-03 20:19:47,14.98353331,0.0002749,69.9987,149.0765,267.6141,92.4703,0.00025853,2.995e-05,0.0,0 STARLINK-5816,1 55778U 23028AP  23337.84707221  .00002995  00000-0  25853-3 0  9997,2 55778  69.9987 149.0765 0002749 267.6141  92.4703 14.98353331 42688,6950.121,96.106,573.896,570.075,0.0
55778.0,STARLINK-5816,PAYLOAD,2023-12-04 12:21:08,14.98332967,0.0002794,69.9996,147.3928,267.6629,92.421,8.6073e-06,1e-07,0.0,0 STARLINK-5816,1 55778U 23028AP  23338.51468623  .00000010  00000-0  86073-5 0  9991,2 55778  69.9996 147.3928 0002794 267.6629  92.4210 14.98332967 42787,6950.184,96.107,573.991,570.107,0.0
55778.0,STARLINK-5816,PAYLOAD,2023-12-05 12:23:10,14.98321888,0.0003268,69.998,144.8681,272.6047,87.4738,-1.5292e-05,-2.75e-06,0.0,0 STARLINK-5816,1 55778U 23028AP  23339.51609436 -.00000275  00000-0 -15292-4 0  9990,2 55778  69.9980 144.8681 0003268 272.6047  87.4738 14.98321888 42931,6950.218,96.108,574.354,569.812,0.0
55778.0,STARLINK-5816,PAYLOAD,2023-12-06 12:25:11,14.98322953,0.0003103,69.9984,142.343,266.4849,93.5956,2.4317e-05,1.97e-06,0.0,0 STARLINK-5816,1 55778U 23028AP  23340.51749159  .00000197  00000-0  24317-4 0  9998,2 55778  69.9984 142.3430 0003103 266.4849  93.5956 14.98322953 43080,6950.215,96.107,574.236,569.923,0.0
55778.0,STARLINK-5816,PAYLOAD,2023-12-06 20:25:51,14.98323042,0.0003113,69.9998,141.5033,265.4397,94.6406,5.1435e-05,5.21e-06,0.0,0 STARLINK-5816,1 55778U 23028AP  23340.85129208  .00000521  00000-0  51435-4 0  9994,2 55778  69.9998 141.5033 0003113 265.4397  94.6406 14.98323042 43131,6950.214,96.107,574.243,569.916,0.0
55778.0,STARLINK-5816,PAYLOAD,2023-12-07 12:27:12,14.98325555,0.0003063,69.9974,139.8173,265.1761,94.9049,1.7768e-05,1.19e-06,0.0,0 STARLINK-5816,1 55778U 23028AP  23341.51889375  .00000119  00000-0  17768-4 0  9990,2 55778  69.9974 139.8173 0003063 265.1761  94.9049 14.98325555 43234,6950.207,96.107,574.2,569.943,0.0
55778.0,STARLINK-5816,PAYLOAD,2023-12-08 12:29:13,14.98329572,0.0003228,69.9982,137.2937,269.2573,90.8216,2.7202e-05,2.32e-06,0.0,0 STARLINK-5816,1 55778U 23028AP  23342.52029349  .00000232  00000-0  27202-4 0  9999,2 55778  69.9982 137.2937 0003228 269.2573  90.8216 14.98329572 43382,6950.194,96.107,574.303,569.816,0.0
55778.0,STARLINK-5816,PAYLOAD,2023-12-09 12:31:14,14.98331148,0.0003334,69.9984,134.769,272.1869,87.8909,5.0651e-05,5.11e-06,0.0,0 STARLINK-5816,1 55778U 23028AP  23343.52169174  .00000511  00000-0  50651-4 0  9995,2 55778  69.9984 134.7690 0003334 272.1869  87.8909 14.98331148 43535,6950.189,96.107,574.372,569.737,0.0
55778.0,STARLINK-5816,PAYLOAD,2023-12-10 12:33:15,14.98331454,0.000299,69.9991,132.2446,267.0963,92.9853,-1.1657e-05,-2.32e-06,0.0,0 STARLINK-5816,1 55778U 23028AP  23344.52309234 -.00000232  00000-0 -11657-4 0  9994,2 55778  69.9991 132.2446 0002990 267.0963  92.9853 14.98331454 43681,6950.188,96.107,574.132,569.975,0.0
55778.0,STARLINK-5816,PAYLOAD,2023-12-10 14:09:23,14.98330935,0.0003013,69.999,132.0762,267.3352,92.7462,-1.5718e-05,-2.81e-06,0.0,0 STARLINK-5816,1 55778U 23028AP  23344.58985270 -.00000281  00000-0 -15718-4 0  9996,2 55778  69.9990 132.0762 0003013 267.3352  92.7462 14.98330935 43699,6950.19,96.107,574.149,569.961,0.0
55778.0,STARLINK-5816,PAYLOAD,2023-12-10 20:33:55,14.98331273,0.0003196,69.9991,131.4032,270.895,89.1843,-9.5202e-06,-2.07e-06,0.0,0 STARLINK-5816,1 55778U 23028AP  23344.85689222 -.00000207  00000-0 -95202-5 0  9999,2 55778  69.9991 131.4032 0003196 270.8950  89.1843 14.98331273 43732,6950.189,96.107,574.275,569.833,0.0
55778.0,STARLINK-5816,PAYLOAD,2023-12-11 14:11:24,14.98331121,0.0003242,69.999,129.5517,271.8746,88.2041,-4.9033e-06,-1.52e-06,0.0,0 STARLINK-5816,1 55778U 23028AP  23345.59125116 -.00000152  00000-0 -49033-5 0  9998,2 55778  69.9990 129.5517 0003242 271.8746  88.2041 14.98331121 43847,6950.189,96.107,574.308,569.801,0.0
55778.0,STARLINK-5816,PAYLOAD,2023-12-11 18:59:48,14.98332963,0.0003164,69.9991,129.0468,269.5993,90.4803,1.5228e-05,8.9e-07,0.0,0 STARLINK-5816,1 55778U 23028AP  23345.79152898  .00000089  00000-0  15228-4 0  9992,2 55778  69.9991 129.0468 0003164 269.5993  90.4803 14.98332963 43878,6950.184,96.107,574.248,569.85,0.0
55778.0,STARLINK-5816,PAYLOAD,2023-12-12 14:13:25,14.98328802,0.0003128,69.9993,127.0274,267.0641,93.016,6.9481e-06,-1e-07,0.0,0 STARLINK-5816,1 55778U 23028AP  23346.59265073 -.00000010  00000-0  69481-5 0  9997,2 55778  69.9993 127.0274 0003128 267.0641  93.0160 14.98328802 43991,6950.197,96.107,574.236,569.888,0.0
55778.0,STARLINK-5816,PAYLOAD,2023-12-12 19:01:49,14.98330153,0.0003117,69.9993,126.5226,266.4814,93.5989,2.1991e-05,1.69e-06,0.0,0 STARLINK-5816,1 55778U 23028AP  23346.79292944  .00000169  00000-0  21991-4 0  9993,2 55778  69.9993 126.5226 0003117 266.4814  93.5989 14.98330153 44026,6950.192,96.107,574.224,569.891,0.0
55778.0,STARLINK-5816,PAYLOAD,2023-12-13 14:15:25,14.98332978,0.0003075,69.9995,124.5031,263.729,96.3519,9.0656e-06,1.5e-07,0.0,0 STARLINK-5816,1 55778U 23028AP  23347.59404661  .00000015  00000-0  90656-5 0  9998,2 55778  69.9995 124.5031 0003075 263.7290  96.3519 14.98332978 44141,6950.184,96.107,574.186,569.912,0.0
55778.0,STARLINK-5816,PAYLOAD,2023-12-13 19:03:49,14.98333872,0.0003065,69.9995,123.9982,263.4785,96.6025,1.8854e-05,1.32e-06,0.0,0 STARLINK-5816,1 55778U 23028AP  23347.79432532  .00000132  00000-0  18854-4 0  9997,2 55778  69.9995 123.9982 0003065 263.4785  96.6025 14.98333872 44176,6950.181,96.107,574.176,569.916,0.0
55778.0,STARLINK-5816,PAYLOAD,2023-12-14 11:05:10,14.98326996,0.0002967,69.9999,122.3159,259.4733,100.6092,-1.9308e-05,-3.23e-06,0.0,0 STARLINK-5816,1 55778U 23028AP  23348.46193010 -.00000323  00000-0 -19308-4 0  9996,2 55778  69.9999 122.3159 0002967 259.4733 100.6092 14.98326996 44277,6950.202,96.107,574.129,570.005,0.0
55778.0,STARLINK-5816,PAYLOAD,2023-12-14 14:17:26,14.98326279,0.0002982,69.9998,121.9791,259.5163,100.5661,-2.78e-05,-4.25e-06,0.0,0 STARLINK-5816,1 55778U 23028AP  23348.59545098 -.00000425  00000-0 -27800-4 0  9996,2 55778  69.9998 121.9791 0002982 259.5163 100.5661 14.98326279 44295,6950.204,96.107,574.142,569.997,0.0
55778.0,STARLINK-5816,PAYLOAD,2023-12-14 19:05:51,14.98326704,0.0002976,69.9998,121.4739,260.0689,100.0134,-2.103e-05,-3.44e-06,0.0,0 STARLINK-5816,1 55778U 23028AP  23348.79573087 -.00000344  00000-0 -21030-4 0  9996,2 55778  69.9998 121.4739 0002976 260.0689 100.0134 14.98326704 44322,6950.203,96.107,574.136,570.0,0.0
55778.0,STARLINK-5816,PAYLOAD,2023-12-15 11:07:11,14.98328148,0.0002919,69.9999,119.7905,260.4754,99.6075,-3.3609e-05,-4.94e-06,0.0,0 STARLINK-5816,1 55778U 23028AP  23349.46333109 -.00000494  00000-0 -33609-4 0  9991,2 55778  69.9999 119.7905 0002919 260.4754  99.6075 14.98328148 44424,6950.199,96.107,574.092,570.035,0.0
55778.0,STARLINK-5816,PAYLOAD,2023-12-15 14:19:27,14.98327995,0.0002906,70.0,119.4539,259.9623,100.1208,-3.0992e-05,-4.63e-06,0.0,0 STARLINK-5816,1 55778U 23028AP  23349.59685129 -.00000463  00000-0 -30992-4 0  9995,2 55778  70.0000 119.4539 0002906 259.9623 100.1208 14.98327995 44441,6950.199,96.107,574.084,570.044,0.0
55778.0,STARLINK-5816,PAYLOAD,2023-12-15 19:07:52,14.98327648,0.0002943,69.9999,118.9488,262.4628,97.6197,-3.5154e-05,-5.12e-06,0.0,0 STARLINK-5816,1 55778U 23028AP  23349.79713207 -.00000512  00000-0 -35154-4 0  9996,2 55778  69.9999 118.9488 0002943 262.4628  97.6197 14.98327648 44472,6950.2,96.107,574.111,570.02,0.0
55778.0,STARLINK-5816,PAYLOAD,2023-12-16 11:09:12,14.9833037,0.0003054,69.9996,117.2648,267.1207,92.9603,6.4953e-05,6.82e-06,0.0,0 STARLINK-5816,1 55778U 23028AP  23350.46472783  .00000682  00000-0  64953-4 0  9998,2 55778  69.9996 117.2648 0003054 267.1207  92.9603 14.98330370 44575,6950.192,96.107,574.179,569.934,0.0
55778.0,STARLINK-5816,PAYLOAD,2023-12-16 14:21:28,14.98330338,0.0002909,69.9997,116.9279,266.7525,93.3302,7.8251e-05,8.41e-06,0.0,0 STARLINK-5816,1 55778U 23028AP  23350.59824763  .00000841  00000-0  78251-4 0  9994,2 55778  69.9997 116.9279 0002909 266.7525  93.3302 14.98330338 44595,6950.192,96.107,574.079,570.035,0.0
55778.0,STARLINK-5816,PAYLOAD,2023-12-16 19:09:52,14.9834232,0.0003002,69.9998,116.4232,268.6984,91.3832,-8.7349e-05,-1.135e-05,0.0,0 STARLINK-5816,1 55778U 23028AP  23350.79852356 -.00001135  00000-0 -87349-4 0  9992,2 55778  69.9998 116.4232 0003002 268.6984  91.3832 14.98342320 44629,6950.155,96.106,574.106,569.933,0.0
55778.0,STARLINK-5816,PAYLOAD,2023-12-17 12:47:21,14.98327296,0.0002904,70.0004,114.573,259.5668,100.5164,1.5451e-05,9.1e-07,0.0,0 STARLINK-5816,1 55778U 23028AP  23351.53289079  .00000091  00000-0  15451-4 0  9994,2 55778  70.0004 114.5730 0002904 259.5668 100.5164 14.98327296 44738,6950.201,96.107,574.085,570.048,0.0
55778.0,STARLINK-5816,PAYLOAD,2023-12-17 14:23:29,14.98326626,0.0002935,70.0003,114.4045,260.0937,99.9891,6.1135e-06,-2e-07,0.0,0 STARLINK-5816,1 55778U 23028AP  23351.59965158 -.00000020  00000-0  61135-5 0  9993,2 55778  70.0003 114.4045 0002935 260.0937  99.9891 14.98326626 44740,6950.203,96.107,574.108,570.028,0.0
55778.0,STARLINK-5816,PAYLOAD,2023-12-17 17:35:45,14.98329887,0.0003005,69.9999,114.0668,260.2493,99.8327,2.8414e-05,2.46e-06,0.0,0 STARLINK-5816,1 55778U 23028AP  23351.73316865  .00000246  00000-0  28414-4 0  9995,2 55778  69.9999 114.0668 0003005 260.2493  99.8327 14.98329887 44763,6950.193,96.107,574.147,569.97,0.0
55778.0,STARLINK-5816,PAYLOAD,2023-12-18 11:13:14,14.98336121,0.0003096,69.9997,112.215,261.669,98.4118,-1.4638e-06,-1.1e-06,0.0,0 STARLINK-5816,1 55778U 23028AP  23352.46752388 -.00000110  00000-0 -14638-5 0  9996,2 55778  69.9997 112.2150 0003096 261.6690  98.4118 14.98336121 44875,6950.174,96.107,574.191,569.887,0.0
